*******************************************************************************
JPL/HORIZONS               535 Montague (A904 JE)          2020-Jun-22 09:13:14
Rec #:     535 (+COV) Soln.date: 2020-May-20_01:07:45   # obs: 3076 (1904-2020)
 
IAU76/J2000 helio. ecliptic osc. elements (au, days, deg., period=Julian yrs):
 
  EPOCH=  2455409.5 ! 2010-Aug-01.00 (TDB)         Residual RMS= .31395
   EC= .02485007836103338  QR= 2.505747588888341   TP= 2455422.5550276572
   OM= 84.8543556374386    W=  68.55786552796341   IN= 6.780846025790452
   A= 2.569602410136945    MA= 356.8762017756877   ADIST= 2.633457231385548
   PER= 4.11915            N= .23927932            ANGMOM= .027566414
   DAN= 2.5449             DDN= 2.59156            L= 153.27502
   B= 6.3095467            MOID= 1.52680004        TP= 2010-Aug-14.0550276572
 
Asteroid physical parameters (km, seconds, rotational period in hours):
   GM= n.a.                RAD= 39.6495            ROTPER= 10.2482
   H= 9.4                  G= .150                 B-V= .752
                           ALBEDO= .054            STYP= C
 
ASTEROID comments: 
1: soln ref.= JPL#59, OCC=0
2: source=ORB
*******************************************************************************
 
 
*******************************************************************************
Ephemeris / WWW_USER Mon Jun 22 09:13:14 2020 Pasadena, USA      / Horizons
*******************************************************************************
Target body name: 535 Montague (A904 JE)          {source: JPL#59}
Center body name: Solar System Barycenter (0)     {source: DE431}
Center-site name: BODY CENTER
*******************************************************************************
Start time      : A.D. 1969-Jun-28 00:00:00.0000 TDB
Stop  time      : A.D. 2071-May-04 00:00:00.0000 TDB
Step-size       : 7200 minutes
*******************************************************************************
Center geodetic : 0.00000000,0.00000000,0.0000000 {E-lon(deg),Lat(deg),Alt(km)}
Center cylindric: 0.00000000,0.00000000,0.0000000 {E-lon(deg),Dxy(km),Dz(km)}
Center radii    : (undefined)                                                  
Small perturbers: Yes                             {source: SB431-N16}
Output units    : AU-D
Output type     : GEOMETRIC cartesian states
Output format   : 2 (position and velocity)
Reference frame : Ecliptic of J2000.0
*******************************************************************************
Initial IAU76/J2000 heliocentric ecliptic osculating elements (au, days, deg.):
  EPOCH=  2455409.5 ! 2010-Aug-01.00 (TDB)         Residual RMS= .31395        
   EC= .02485007836103338  QR= 2.505747588888341   TP= 2455422.5550276572      
   OM= 84.8543556374386    W=  68.55786552796341   IN= 6.780846025790452       
  Equivalent ICRF heliocentric equatorial cartesian coordinates (au, au/d):
   X=-2.157070233417693E+00  Y= 1.036863608452418E+00  Z= 7.424505849910317E-01
  VX=-5.433861637837166E-03 VY=-8.977215407816770E-03 VZ=-3.301720664289957E-03
Asteroid physical parameters (km, seconds, rotational period in hours):        
   GM= n.a.                RAD= 39.6495            ROTPER= 10.2482             
   H= 9.4                  G= .150                 B-V= .752                   
                           ALBEDO= .054            STYP= C                     
*******************************************************************************
            JDTDB,            Calendar Date (TDB),        delta-T,                      X,                      Y,                      Z,                     VX,                     VY,                     VZ,
******************************************************************************************************************************************************************************************************************
$$SOE
2465740.500000000, A.D. 2038-Nov-13 00:00:00.0000,      69.182725, -4.262469517645698E-01,  2.482746330242300E+00,  7.860179834686132E-02, -1.062669933084425E-02, -2.116907739081841E-03,  1.231307291074538E-03,
2465745.500000000, A.D. 2038-Nov-18 00:00:00.0000,      69.182816, -4.792775689444911E-01,  2.471591728806612E+00,  8.473979625690907E-02, -1.058472615143391E-02, -2.344814405355018E-03,  1.223796164153937E-03,
2465750.500000000, A.D. 2038-Nov-23 00:00:00.0000,      69.182918, -5.320860055546134E-01,  2.459299463929516E+00,  9.083880466649806E-02, -1.053782842679471E-02, -2.571954420471404E-03,  1.215711854713540E-03,
2465755.500000000, A.D. 2038-Nov-28 00:00:00.0000,      69.183030, -5.846476609659593E-01,  2.445873649444369E+00,  9.689596338635852E-02, -1.048601544431327E-02, -2.798215525743214E-03,  1.207056705339624E-03,
2465760.500000000, A.D. 2038-Dec-03 00:00:00.0000,      69.183148, -6.369379877308033E-01,  2.431318960833925E+00,  1.029084247402889E-01, -1.042929919229541E-02, -3.023485331975898E-03,  1.197833378927470E-03,
2465765.500000000, A.D. 2038-Dec-08 00:00:00.0000,      69.183272, -6.889325051328243E-01,  2.415640635702085E+00,  1.088733551703303E-01, -1.036769437779857E-02, -3.247651392311546E-03,  1.188044860100408E-03,
2465770.500000000, A.D. 2038-Dec-13 00:00:00.0000,      69.183401, -7.406068128221660E-01,  2.398844473874617E+00,  1.147879368486021E-01, -1.030121844301446E-02, -3.470601277459519E-03,  1.177694456460162E-03,
2465775.500000000, A.D. 2038-Dec-18 00:00:00.0000,      69.183534, -7.919366045297100E-01,  2.380936837122797E+00,  1.206493692948858E-01, -1.022989158037771E-02, -3.692222651022654E-03,  1.166785799617831E-03,
2465780.500000000, A.D. 2038-Dec-23 00:00:00.0000,      69.183673, -8.428976818507301E-01,  2.361924648510995E+00,  1.264548709986241E-01, -1.015373674502803E-02, -3.912403344765067E-03,  1.155322845921358E-03,
2465785.500000000, A.D. 2038-Dec-28 00:00:00.0000,      69.183816, -8.934659680831804E-01,  2.341815391365740E+00,  1.322016810437799E-01, -1.007277966422598E-02, -4.131031434880358E-03,  1.143309876876719E-03,
2465790.500000000, A.D. 2039-Jan-02 00:00:00.0000,      69.183960, -9.436175221059047E-01,  2.320617107860169E+00,  1.378870607350505E-01, -9.987048843935165E-03, -4.347995319564013E-03,  1.130751499264576E-03,
2465795.500000000, A.D. 2039-Jan-07 00:00:00.0000,      69.184102, -9.933285522829101E-01,  2.298338397207575E+00,  1.435082952238559E-01, -9.896575572671146E-03, -4.563183797778874E-03,  1.117652644928668E-03,
2465800.500000000, A.D. 2039-Jan-12 00:00:00.0000,      69.184243, -1.042575430380067E+00,  2.274988413458373E+00,  1.490626951323812E-01, -9.801393922624874E-03, -4.776486149110314E-03,  1.104018570205315E-03,
2465805.500000000, A.D. 2039-Jan-17 00:00:00.0000,      69.184382, -1.091334705480665E+00,  2.250576862895219E+00,  1.545475981738190E-01, -9.701540748088764E-03, -4.987792214633423E-03,  1.089854854969117E-03,
2465810.500000000, A.D. 2039-Jan-22 00:00:00.0000,      69.184521, -1.139583117886497E+00,  2.225114001021466E+00,  1.599603707668524E-01, -9.597055681260293E-03, -5.196992478690968E-03,  1.075167401284384E-03,
2465815.500000000, A.D. 2039-Jan-27 00:00:00.0000,      69.184656, -1.187297612991618E+00,  2.198610629138818E+00,  1.652984096424263E-01, -9.487981125518468E-03, -5.403978151400902E-03,  1.059962431671291E-03,
2465820.500000000, A.D. 2039-Feb-01 00:00:00.0000,      69.184786, -1.234455355116300E+00,  2.171078090511108E+00,  1.705591434409320E-01, -9.374362246235904E-03, -5.608641251653217E-03,  1.044246487010585E-03,
2465825.500000000, A.D. 2039-Feb-06 00:00:00.0000,      69.184908, -1.281033741288908E+00,  2.142528266112418E+00,  1.757400342980795E-01, -9.256246959128155E-03, -5.810874690334061E-03,  1.028026424119686E-03,
2465830.500000000, A.D. 2039-Feb-11 00:00:00.0000,      69.185022, -1.327010414963261E+00,  2.112973569959012E+00,  1.808385794178965E-01, -9.133685916085923E-03, -6.010572353544886E-03,  1.011309413030633E-03,
2465835.500000000, A.D. 2039-Feb-16 00:00:00.0000,      69.185129, -1.372363279658730E+00,  2.082426944025540E+00,  1.858523126314132E-01, -9.006732488438226E-03, -6.207629185647130E-03,  9.941029339907903E-04,
2465840.500000000, A.D. 2039-Feb-21 00:00:00.0000,      69.185230, -1.417070512510394E+00,  2.050901852746907E+00,  1.907788059396995E-01, -8.875442747741434E-03, -6.401941271889219E-03,  9.764147742043093E-04,
2465845.500000000, A.D. 2039-Feb-26 00:00:00.0000,      69.185321, -1.461110577717277E+00,  2.018412277109143E+00,  1.956156710399908E-01, -8.739875444213573E-03, -6.593405920062361E-03,  9.582530243292751E-04,
2465850.500000000, A.D. 2039-Mar-03 00:00:00.0000,      69.185402, -1.504462239875793E+00,  1.984972708335516E+00,  2.003605608336512E-01, -8.600091982172136E-03, -6.781921740784457E-03,  9.396260747026830E-04,
2465855.500000000, A.D. 2039-Mar-08 00:00:00.0000,      69.185471, -1.547104577180256E+00,  1.950598141172577E+00,  2.050111709143970E-01, -8.456156391336329E-03, -6.967388727533103E-03,  9.205426112062320E-04,
2465860.500000000, A.D. 2039-Mar-13 00:00:00.0000,      69.185527, -1.589016994470794E+00,  1.915304066773926E+00,  2.095652410349025E-01, -8.308135294811437E-03, -7.149708337514604E-03,  9.010116107662638E-04,
2465865.500000000, A.D. 2039-Mar-18 00:00:00.0000,      69.185573, -1.630179236116528E+00,  1.879106465180072E+00,  2.140205565501836E-01, -8.156097875317422E-03, -7.328783572003314E-03,  8.810423365761665E-04,
2465870.500000000, A.D. 2039-Mar-23 00:00:00.0000,      69.185609, -1.670571398725014E+00,  1.842021797401077E+00,  2.183749498364570E-01, -8.000115839292126E-03, -7.504519054834046E-03,  8.606443330595648E-04,
2465875.500000000, A.D. 2039-Mar-28 00:00:00.0000,      69.185634, -1.710173943664973E+00,  1.804066997110993E+00,  2.226263016840828E-01, -7.840263378021626E-03, -7.676821109281950E-03,  8.398274205344129E-04,
